[{"OBJECT_NAME":"STARLINK-6059","OBJECT_ID":"2023-078AZ","EPOCH":"2026-03-09T21:24:17.066016","MEAN_MOTION":14.98328614,"ECCENTRICITY":0.00026337,"INCLINATION":70.0011,"RA_OF_ASC_NODE":343.8217,"ARG_OF_PERICENTER":264.6328,"MEAN_ANOMALY":95.453,"EPHEMERIS_TYPE":0,"CLASSIFICATION_TYPE":"U","NORAD_CAT_ID":56814,"ELEMENT_SET_NO":999,"REV_AT_EPOCH":15271,"BSTAR":2.4703435e-5,"MEAN_MOTION_DOT":2.02e-6,"MEAN_MOTION_DDOT":0},{"OBJECT_NAME":"SITRO-AIS 18","OBJECT_ID":"2024-199BH","EPOCH":"2026-03-09T22:56:51.354816","MEAN_MOTION":14.97350577,"ECCENTRICITY":0.00069154,"INCLINATION":97.331,"RA_OF_ASC_NODE":274.6581,"ARG_OF_PERICENTER":53.7115,"MEAN_ANOMALY":306.4746,"EPHEMERIS_TYPE":0,"CLASSIFICATION_TYPE":"U","NORAD_CAT_ID":61790,"ELEMENT_SET_NO":999,"REV_AT_EPOCH":11718,"BSTAR":0.00032194999,"MEAN_MOTION_DOT":3.687e-5,"MEAN_MOTION_DDOT":0}]
